63724,KUIPER-00008,2025,96.08,-1.0,+,51.89,Active,0,LEO,USA,USA,Unknown,Unknown,Unknown,1 63724U 25088A   25221.60543801  .00005704  00000+0  48965-3 0  9994,2 63724  51.8917 333.8551 0011629 105.7755 254.4499 14.98735096 16244,14.98735096,0.0011629,LEO
63725,KUIPER-00009,2025,95.43,-1.0,+,51.88,Active,0,LEO,USA,USA,Unknown,Unknown,Unknown,1 63725U 25088B   25221.58335648  .00002278  00000+0  16038-3 0  9999,2 63725  51.8836 326.6751 0011766 126.7850 126.8998 15.09020278  5851,15.09020278,0.0011766,LEO
63726,KUIPER-00010,2025,93.72,-1.0,+,51.87,Active,0,LEO,USA,USA,Unknown,Unknown,Unknown,1 63726U 25088C   25221.54181267  .00021208  00000+0  59629-3 0  9999,2 63726  51.8650 323.3078 0009224 118.3533 241.8384 15.36417403 16009,15.36417403,0.0009224,LEO
63727,KUIPER-00011,2025,93.76,-1.0,+,51.86,Active,0,LEO,USA,USA,Unknown,Unknown,Unknown,1 63727U 25088D   25221.57321788  .00021282  00000+0  60789-3 0  9998,2 63727  51.8586 323.4451 0010572 127.8377 232.3567 15.35908924 16148,15.35908924,0.0010572,LEO
63728,KUIPER-00012,2025,93.75,-1.0,+,51.86,Active,0,LEO,USA,USA,Unknown,Unknown,Unknown,1 63728U 25088E   25221.57016608  .00022168  00000+0  62992-3 0  9993,2 63728  51.8566 323.4113 0010712 129.1284 231.0656 15.36043601 16092,15.36043601,0.0010712,LEO
63729,KUIPER-00013,2025,95.68,-1.0,+,51.89,Active,0,LEO,USA,USA,Unknown,Unknown,Unknown,1 63729U 25088F   25221.58335648 -.01236982  00000+0 -93318-1 0  9991,2 63729  51.8918 327.3755 0007264  72.1334 202.0456 15.04839537  4864,15.04839537,0.0007264,LEO
63730,KUIPER-00014,2025,95.68,-1.0,+,51.88,Active,0,LEO,USA,USA,Unknown,Unknown,Unknown,1 63730U 25088G   25221.58335648 -.00005058  00000+0 -33332-3 0  9992,2 63730  51.8846 328.4320 0008480 114.1828  62.0974 15.04934798  5867,15.04934798,0.000848,LEO
63731,KUIPER-00015,2025,97.22,-1.0,+,51.9,Active,0,LEO,USA,USA,Unknown,Unknown,Unknown,1 63731U 25088H   25221.57133678  .00000439  00000+0  84742-4 0  9999,2 63731  51.9003 339.4063 0011434  99.2772 260.9485 14.81131065 16244,14.81131065,0.0011434,LEO
